[{"OBJECT_NAME":"SPAWAR-CAL-O","OBJECT_ID":"2018-099J","EPOCH":"2026-03-09T17:45:15.080832","MEAN_MOTION":15.31356755,"ECCENTRICITY":0.00072392,"INCLINATION":97.4452,"RA_OF_ASC_NODE":132.0993,"ARG_OF_PERICENTER":285.067,"MEAN_ANOMALY":74.977,"EPHEMERIS_TYPE":0,"CLASSIFICATION_TYPE":"U","NORAD_CAT_ID":43766,"ELEMENT_SET_NO":999,"REV_AT_EPOCH":39828,"BSTAR":0.00069663212,"MEAN_MOTION_DOT":0.00021069,"MEAN_MOTION_DDOT":0},{"OBJECT_NAME":"STARLINK-32049","OBJECT_ID":"2024-124S","EPOCH":"2026-03-09T21:21:00.490464","MEAN_MOTION":15.30174808,"ECCENTRICITY":0.00011359,"INCLINATION":53.1626,"RA_OF_ASC_NODE":321.7543,"ARG_OF_PERICENTER":84.9069,"MEAN_ANOMALY":275.2062,"EPHEMERIS_TYPE":0,"CLASSIFICATION_TYPE":"U","NORAD_CAT_ID":60199,"ELEMENT_SET_NO":999,"REV_AT_EPOCH":9555,"BSTAR":2.7650758e-5,"MEAN_MOTION_DOT":4.59e-6,"MEAN_MOTION_DDOT":0}]
